NORAD_CAT_ID,OBJECT_NAME,OBJECT_TYPE,EPOCH,MEAN_MOTION,ECCENTRICITY,INCLINATION,RA_OF_ASC_NODE,ARG_OF_PERICENTER,MEAN_ANOMALY,BSTAR,MEAN_MOTION_DOT,MEAN_MOTION_DDOT,TLE_LINE0,TLE_LINE1,TLE_LINE2,SEMIMAJOR_AXIS,PERIOD,APOGEE,PERIGEE,DECAYED
51735.0,STARLINK-3517,PAYLOAD,2022-04-16 22:00:01,15.57566704,0.0001436,53.2172,231.4053,52.2896,181.8484,-0.010434,-0.00717102,0.0,0 STARLINK-3517,1 51735U 22016X   22106.91668981 -.00717102  00000-0 -10434-1 0  9994,2 51735  53.2172 231.4053 0001436  52.2896 181.8484 15.57566704  3718,6772.839,92.452,395.676,393.731,0.0
51735.0,STARLINK-3517,PAYLOAD,2022-04-17 06:00:00,15.57053715,0.0001506999999999,53.2175,229.7953,41.1696,262.7343,-0.010555,-0.00712005,0.0,0 STARLINK-3517,1 51735U 22016X   22107.25001157 -.00712005  00000-0 -10555-1 0  9999,2 51735  53.2175 229.7953 0001507  41.1696 262.7343 15.57053715  9862,6774.326,92.482,397.212,395.17,0.0
51735.0,STARLINK-3517,PAYLOAD,2022-04-17 14:00:01,15.56546096,0.000189,53.2176,228.1901,27.6657,345.4521,-0.010816,-0.007156,0.0,0 STARLINK-3517,1 51735U 22016X   22107.58334491 -.00715600  00000-0 -10816-1 0  9999,2 51735  53.2176 228.1901 0001890  27.6657 345.4521 15.56546096  3702,6775.799,92.513,398.945,396.383,0.0
51735.0,STARLINK-3517,PAYLOAD,2022-04-17 22:00:00,15.56035172,0.0001478,53.2172,226.584,40.7174,41.0038,-0.010988,-0.00713345,0.0,0 STARLINK-3517,1 51735U 22016X   22107.91667824 -.00713345  00000-0 -10988-1 0  9999,2 51735  53.2172 226.5840 0001478  40.7174  41.0038 15.56035172  3692,6777.281999999997,92.543,400.149,398.145,0.0
51735.0,STARLINK-3517,PAYLOAD,2022-04-18 08:00:01,15.55397773,0.0001739,53.2176,224.5769,38.8737,217.7402,-0.011236,-0.00712479,0.0,0 STARLINK-3517,1 51735U 22016X   22108.33334491 -.00712479  00000-0 -11236-1 0  9991,2 51735  53.2176 224.5769 0001739  38.8737 217.7402 15.55397773 10037,6779.134,92.581,402.177,399.82,0.0
51735.0,STARLINK-3517,PAYLOAD,2022-04-18 14:00:01,15.55014043,0.0002015,53.2173,223.3762,32.6678,184.4218,-0.011391,-0.00712192,0.0,0 STARLINK-3517,1 51735U 22016X   22108.58334491 -.00712192  00000-0 -11391-1 0  9992,2 51735  53.2173 223.3762 0002015  32.6678 184.4218 15.55014043  3705,6780.249,92.604,403.48,400.74800000000016,0.0
51735.0,STARLINK-3517,PAYLOAD,2022-04-18 22:00:00,15.5450677,0.0001436,53.2173,221.7737,48.2831,235.5705,-0.011682,-0.00716328,0.0,0 STARLINK-3517,1 51735U 22016X   22108.91667824 -.00716328  00000-0 -11682-1 0  9996,2 51735  53.2173 221.7737 0001436  48.2831 235.5705 15.54506770  3700,6781.724,92.634,404.56300000000016,402.615,0.0
51735.0,STARLINK-3517,PAYLOAD,2022-04-19 06:00:00,15.53993626,0.0001520999999999,53.2174,220.1712,38.2734,311.7340000000001,-0.011809,-0.00711067,0.0,0 STARLINK-3517,1 51735U 22016X   22109.25001157 -.00711067  00000-0 -11809-1 0  9991,2 51735  53.2174 220.1712 0001521  38.2734 311.7340 15.53993626 10173,6783.217,92.664,406.11300000000006,404.05,0.0
51735.0,STARLINK-3517,PAYLOAD,2022-04-19 14:00:01,15.53486823,0.0001847,53.2174,218.5736,30.025,25.5192,-0.012121,-0.00716034,0.0,0 STARLINK-3517,1 51735U 22016X   22109.58334491 -.00716034  00000-0 -12121-1 0  9994,2 51735  53.2174 218.5736 0001847  30.0250  25.5192 15.53486823  3706,6784.691999999999,92.695,407.81,405.304,0.0
51735.0,STARLINK-3517,PAYLOAD,2022-04-20 06:00:00,15.52465731,0.0001845,53.2175,215.3758,36.578,148.2076,-0.012532,-0.00713503,0.0,0 STARLINK-3517,1 51735U 22016X   22110.25001157 -.00713503  00000-0 -12532-1 0  9994,2 51735  53.2175 215.3758 0001845  36.5780 148.2076 15.52465731 10338,6787.666,92.756,410.784,408.279,0.0
51735.0,STARLINK-3517,PAYLOAD,2022-04-20 14:00:01,15.51954887,0.0002175,53.2176,213.7817,28.5046,219.9812,-0.012747,-0.00712589,0.0,0 STARLINK-3517,1 51735U 22016X   22110.58334491 -.00712589  00000-0 -12747-1 0  9991,2 51735  53.2176 213.7817 0002175  28.5046 219.9812 15.51954887  3701,6789.156,92.786,412.49800000000016,409.544,0.0
51735.0,STARLINK-3517,PAYLOAD,2022-04-20 22:00:00,15.514466199999998,0.0001493,53.2175,212.186,44.3467,267.22700000000003,-0.013039,-0.00724456,0.0,0 STARLINK-3517,1 51735U 22016X   22110.91667824 -.00724456  00000-0 -13039-1 0  9998,2 51735  53.2175 212.1860 0001493  44.3467 267.2270 15.51446620  3688,6790.639,92.817,413.517,411.49,0.0
51735.0,STARLINK-3517,PAYLOAD,2022-04-21 06:00:00,15.50933945,0.0001674,53.2176,210.5915,33.4868,340.5635,-0.01318,-0.00719358,0.0,0 STARLINK-3517,1 51735U 22016X   22111.25001157 -.00719358  00000-0 -13180-1 0  9999,2 51735  53.2176 210.5915 0001674  33.4868 340.5635 15.50933945 10483,6792.135,92.847,415.137,412.86300000000006,0.0
51735.0,STARLINK-3517,PAYLOAD,2022-04-21 14:00:01,15.50427016,0.0001875,53.2175,209.0012,30.6785,45.2319,-0.013528,-0.00724695,0.0,0 STARLINK-3517,1 51735U 22016X   22111.58334491 -.00724695  00000-0 -13528-1 0  9991,2 51735  53.2175 209.0012 0001875  30.6785  45.2319 15.50427016  3716,6793.615,92.878,416.754,414.207,0.0
51735.0,STARLINK-3517,PAYLOAD,2022-04-21 22:00:00,15.49915436,0.0001553,53.2173,207.409,44.4403,92.721,-0.0137169999999999,-0.00721716,0.0,0 STARLINK-3517,1 51735U 22016X   22111.91667824 -.00721716  00000-0 -13717-1 0  9998,2 51735  53.2173 207.4090 0001553  44.4403  92.7210 15.49915436  3684,6795.11,92.908,418.031,415.92,0.0
51735.0,STARLINK-3517,PAYLOAD,2022-04-22 06:00:00,15.49405418,0.0001536,53.2174,205.8181,51.7228,146.0756,-0.013943,-0.00720529,0.0,0 STARLINK-3517,1 51735U 22016X   22112.25001157 -.00720529  00000-0 -13943-1 0  9999,2 51735  53.2174 205.8181 0001536  51.7228 146.0756 15.49405418 10641,6796.601,92.939,419.51,417.422,0.0
51735.0,STARLINK-3517,PAYLOAD,2022-04-22 14:00:01,15.48895244,0.0001809,53.2174,204.2314,38.6202,219.2015,-0.014211,-0.00721233,0.0,0 STARLINK-3517,1 51735U 22016X   22112.58334491 -.00721233  00000-0 -14211-1 0  9997,2 51735  53.2174 204.2314 0001809  38.6202 219.2015 15.48895244  3700,6798.094,92.969,421.18800000000016,418.729,0.0
51735.0,STARLINK-3517,PAYLOAD,2022-04-23 06:00:02,15.47874219,0.0001537,53.2175,201.0557,39.578,336.5193,-0.014675,-0.00718654,0.0,0 STARLINK-3517,1 51735U 22016X   22113.25002315 -.00718654  00000-0 -14675-1 0  9996,2 51735  53.2175 201.0557 0001537  39.5780 336.5193 15.47874219 10799,6801.083000000001,93.031,423.99300000000005,421.902,0.0
51735.0,STARLINK-3517,PAYLOAD,2022-04-23 14:00:01,15.47256086,0.0001788,53.2169,199.4709,40.6531,33.6278,-0.011962,-0.0057589,0.0,0 STARLINK-3517,1 51735U 22016X   22113.58334491 -.00575890  00000-0 -11962-1 0  9994,2 51735  53.2169 199.4709 0001788  40.6531  33.6278 15.47256086  3669,6802.894,93.068,425.975,423.543,0.0
51735.0,STARLINK-3517,PAYLOAD,2022-04-24 06:00:00,15.46345164,0.0001931,53.2177,196.3044,35.8845,152.8665,-0.0154949999999999,-0.00719425,0.0,0 STARLINK-3517,1 51735U 22016X   22114.25001157 -.00719425  00000-0 -15495-1 0  9998,2 51735  53.2177 196.3044 0001931  35.8845 152.8665 15.46345164 10959,6805.565,93.123,428.745,426.116,0.0
51735.0,STARLINK-3517,PAYLOAD,2022-04-24 14:00:01,15.45834884,0.000192,53.2176,194.7249,36.3569,208.7406,-0.015776,-0.0071963,0.0,0 STARLINK-3517,1 51735U 22016X   22114.58334491 -.00719630  00000-0 -15776-1 0  9994,2 51735  53.2176 194.7249 0001920  36.3569 208.7406 15.45834884  3681,6807.063,93.154,430.235,427.621,0.0
51735.0,STARLINK-3517,PAYLOAD,2022-04-25 06:00:00,15.44815619,0.0001751999999999,53.2178,191.5641,32.51,323.4445,-0.016353,-0.00720158,0.0,0 STARLINK-3517,1 51735U 22016X   22115.25001157 -.00720158  00000-0 -16353-1 0  9998,2 51735  53.2178 191.5641 0001752  32.5100 323.4445 15.44815619 11104,6810.057,93.215,433.115,430.729,0.0
51735.0,STARLINK-3517,PAYLOAD,2022-04-25 14:00:01,15.44305867,0.0001882,53.2176,189.9882,30.0073,20.4553,-0.016676,-0.00721584,0.0,0 STARLINK-3517,1 51735U 22016X   22115.58334491 -.00721584  00000-0 -16676-1 0  9996,2 51735  53.2176 189.9882 0001882  30.0073  20.4553 15.44305867  3706,6811.555,93.246,434.702,432.138,0.0
51735.0,STARLINK-3517,PAYLOAD,2022-04-25 22:00:00,15.43795086,0.0001663,53.2174,188.4102,38.1246,66.2353,-0.016921,-0.00719652,0.0,0 STARLINK-3517,1 51735U 22016X   22115.91667824 -.00719652  00000-0 -16921-1 0  9998,2 51735  53.2174 188.4102 0001663  38.1246  66.2353 15.43795086  3690,6813.058000000001,93.277,436.056,433.79,0.0
51735.0,STARLINK-3517,PAYLOAD,2022-04-26 06:00:00,15.43284292,0.0001904,53.2177,186.8346,35.2782,122.3655,-0.017172,-0.00717931,0.0,0 STARLINK-3517,1 51735U 22016X   22116.25001157 -.00717931  00000-0 -17172-1 0  9994,2 51735  53.2177 186.8346 0001904  35.2782 122.3655 15.43284292 11269,6814.561,93.308,437.724,435.129,0.0
51735.0,STARLINK-3517,PAYLOAD,2022-04-26 14:00:01,15.42773307,0.000206,53.2175,185.2623,33.1758,177.2021,-0.01743,-0.00716363,0.0,0 STARLINK-3517,1 51735U 22016X   22116.58335648 -.00716363  00000-0 -17430-1 0  9990,2 51735  53.2175 185.2623 0002060  33.1758 177.2021 15.42773307  3684,6816.066,93.338,439.335,436.527,0.0
51735.0,STARLINK-3517,PAYLOAD,2022-04-26 22:00:00,15.42267262,0.0001862,53.2175,183.6879,34.756,227.615,-0.01791,-0.00723051,0.0,0 STARLINK-3517,1 51735U 22016X   22116.91667824 -.00723051  00000-0 -17910-1 0  9996,2 51735  53.2175 183.6879 0001862  34.7560 227.6150 15.42267262  3665,6817.557,93.369,440.691,438.152,0.0
51735.0,STARLINK-3517,PAYLOAD,2022-04-27 06:00:00,15.41756127,0.0001786,53.2177,182.116,35.3093,278.5072,-0.018149,-0.00720407,0.0,0 STARLINK-3517,1 51735U 22016X   22117.25001157 -.00720407  00000-0 -18149-1 0  9992,2 51735  53.2177 182.1160 0001786  35.3093 278.5072 15.41756127 11419,6819.063,93.4,442.146,439.71,0.0
51735.0,STARLINK-3517,PAYLOAD,2022-04-27 14:00:01,15.41132119,0.0001758,53.217,180.5457,32.3096,332.466,-0.014457,-0.00565441,0.0,0 STARLINK-3517,1 51735U 22016X   22117.58335648 -.00565441  00000-0 -14457-1 0  9996,2 51735  53.2170 180.5457 0001758  32.3096 332.4660 15.41132119  3651,6820.904,93.438,443.968,441.57,0.0
